STARLINK-5767           
1 55586U 23020T   26077.25002315  .00041209  00000+0  18001-2 0  9993
2 55586  42.9987 316.5608 0001410 273.4209 151.6952 15.21445686  5772
STARLINK-5727           
1 55587U 23020U   26077.25002315  .00817182  00000+0  30784-1 0  9996
2 55587  43.0021 316.6395 0001364 267.8172  97.1326 15.24115902  5779
STARLINK-5728           
1 55588U 23020V   26077.25002315  .00045049  00000+0  19428-2 0  9995
2 55588  42.9997 316.4361 0001188 299.5093 178.6699 15.21846628  5736
STARLINK-5697           
1 55589U 23020W   26077.25002315  .01340662  00000+0  48291-1 0  9995
2 55589  42.9991 316.7306 0002152 265.5225  86.6160 15.24696869  5672
STARLINK-5762           
1 55590U 23020X   26077.25002315  .00043273  00000+0  18771-2 0  9995
2 55590  43.0002 316.4238 0001087 286.4517 196.5295 15.21663709  5733
STARLINK-5760           
1 55591U 23020Y   26077.25002315  .00042710  00000+0  18625-2 0  9999
2 55591  42.9988 316.5573 0001369 278.7212 147.4130 15.21490114  5772
STARLINK-5759           
1 55592U 23020Z   26077.25002315  .01352937  00000+0  49058-1 0  9999
2 55592  42.9991 316.4902 0001064 301.9673 152.3611 15.24934982  5738
STARLINK-5703           
1 55593U 23020AA  26077.25002315 -.00019469  00000+0 -71780-3 0  9990
2 55593  43.0037 316.3273 0001468 269.1639 254.3145 15.26749829  5772
STARLINK-5750           
1 55594U 23020AB  26077.25002315  .01338621  00000+0  48058-1 0  9994
2 55594  42.9998 316.4053 0000964 296.5756 193.6276 15.25297873  5774
STARLINK-5729           
1 55596U 23020AD  26077.25002315  .01341868  00000+0  50321-1 0  9999
2 55596  42.9988 316.5430 0001280 284.6594 146.5922 15.23828303  5776
STARLINK-5743           
1 55597U 23020AE  26077.25002315  .00056166  00000+0  27028-2 0  9992
2 55597  42.9985 304.9527 0000709 241.3005 331.2550 15.17989874  5677
STARLINK-5756           
1 55598U 23020AF  26077.25002315  .00015237  00000+0  85573-3 0  9997
2 55598  43.0005 305.3532 0002286 272.1846 115.3744 15.13122321  5736
STARLINK-5761           
1 55599U 23020AG  26077.25002315  .00023291  00000+0  12827-2 0  9998
2 55599  42.9993 305.1423 0002051 252.6309 225.6047 15.13602876  5778
STARLINK-5755           
1 55600U 23020AH  26077.25002315  .00018937  00000+0  10405-2 0  9992
2 55600  42.9994 304.9734 0001029 288.2266 270.0842 15.13785162  5738
STARLINK-5744           
1 55601U 23020AJ  26077.25002315  .00034214  00000+0  16098-2 0  9993
2 55601  42.9992 316.6538 0001963 263.8224 119.3576 15.18968635  5674
STARLINK-5764           
1 55602U 23020AK  26077.25002315  .00021597  00000+0  11763-2 0  9998
2 55602  43.0001 305.0594 0001605 259.2161 254.3607 15.14033197  5626
