[{"OBJECT_NAME":"STARLINK-5767","OBJECT_ID":"2023-020T","EPOCH":"2026-03-18T06:00:02.000160","MEAN_MOTION":15.21445686,"ECCENTRICITY":0.00014105,"INCLINATION":42.9987,"RA_OF_ASC_NODE":316.5608,"ARG_OF_PERICENTER":273.4209,"MEAN_ANOMALY":151.6952,"EPHEMERIS_TYPE":0,"CLASSIFICATION_TYPE":"U","NORAD_CAT_ID":55586,"ELEMENT_SET_NO":999,"REV_AT_EPOCH":577,"BSTAR":0.0018001123,"MEAN_MOTION_DOT":0.00041209,"MEAN_MOTION_DDOT":0},{"OBJECT_NAME":"STARLINK-5727","OBJECT_ID":"2023-020U","EPOCH":"2026-03-18T06:00:02.000160","MEAN_MOTION":15.24115902,"ECCENTRICITY":0.00013643,"INCLINATION":43.0021,"RA_OF_ASC_NODE":316.6395,"ARG_OF_PERICENTER":267.8172,"MEAN_ANOMALY":97.1326,"EPHEMERIS_TYPE":0,"CLASSIFICATION_TYPE":"U","NORAD_CAT_ID":55587,"ELEMENT_SET_NO":999,"REV_AT_EPOCH":577,"BSTAR":0.03078445,"MEAN_MOTION_DOT":0.00817182,"MEAN_MOTION_DDOT":0},{"OBJECT_NAME":"STARLINK-5728","OBJECT_ID":"2023-020V","EPOCH":"2026-03-18T06:00:02.000160","MEAN_MOTION":15.21846628,"ECCENTRICITY":0.0001188,"INCLINATION":42.9997,"RA_OF_ASC_NODE":316.4361,"ARG_OF_PERICENTER":299.5093,"MEAN_ANOMALY":178.6699,"EPHEMERIS_TYPE":0,"CLASSIFICATION_TYPE":"U","NORAD_CAT_ID":55588,"ELEMENT_SET_NO":999,"REV_AT_EPOCH":573,"BSTAR":0.0019428107,"MEAN_MOTION_DOT":0.00045049,"MEAN_MOTION_DDOT":0},{"OBJECT_NAME":"STARLINK-5697","OBJECT_ID":"2023-020W","EPOCH":"2026-03-18T06:00:02.000160","MEAN_MOTION":15.24696869,"ECCENTRICITY":0.0002152,"INCLINATION":42.9991,"RA_OF_ASC_NODE":316.7306,"ARG_OF_PERICENTER":265.5225,"MEAN_ANOMALY":86.616,"EPHEMERIS_TYPE":0,"CLASSIFICATION_TYPE":"U","NORAD_CAT_ID":55589,"ELEMENT_SET_NO":999,"REV_AT_EPOCH":567,"BSTAR":0.048291246,"MEAN_MOTION_DOT":0.01340662,"MEAN_MOTION_DDOT":0},{"OBJECT_NAME":"STARLINK-5762","OBJECT_ID":"2023-020X","EPOCH":"2026-03-18T06:00:02.000160","MEAN_MOTION":15.21663709,"ECCENTRICITY":0.00010878,"INCLINATION":43.0002,"RA_OF_ASC_NODE":316.4238,"ARG_OF_PERICENTER":286.4517,"MEAN_ANOMALY":196.5295,"EPHEMERIS_TYPE":0,"CLASSIFICATION_TYPE":"U","NORAD_CAT_ID":55590,"ELEMENT_SET_NO":999,"REV_AT_EPOCH":573,"BSTAR":0.0018771297,"MEAN_MOTION_DOT":0.00043273,"MEAN_MOTION_DDOT":0},{"OBJECT_NAME":"STARLINK-5760","OBJECT_ID":"2023-020Y","EPOCH":"2026-03-18T06:00:02.000160","MEAN_MOTION":15.21490114,"ECCENTRICITY":0.0001369,"INCLINATION":42.9988,"RA_OF_ASC_NODE":316.5573,"ARG_OF_PERICENTER":278.7212,"MEAN_ANOMALY":147.413,"EPHEMERIS_TYPE":0,"CLASSIFICATION_TYPE":"U","NORAD_CAT_ID":55591,"ELEMENT_SET_NO":999,"REV_AT_EPOCH":577,"BSTAR":0.0018624761,"MEAN_MOTION_DOT":0.0004271,"MEAN_MOTION_DDOT":0},{"OBJECT_NAME":"STARLINK-5759","OBJECT_ID":"2023-020Z","EPOCH":"2026-03-18T06:00:02.000160","MEAN_MOTION":15.24934982,"ECCENTRICITY":0.00010644,"INCLINATION":42.9991,"RA_OF_ASC_NODE":316.4902,"ARG_OF_PERICENTER":301.9673,"MEAN_ANOMALY":152.3611,"EPHEMERIS_TYPE":0,"CLASSIFICATION_TYPE":"U","NORAD_CAT_ID":55592,"ELEMENT_SET_NO":999,"REV_AT_EPOCH":573,"BSTAR":0.049058359,"MEAN_MOTION_DOT":0.01352937,"MEAN_MOTION_DDOT":0},{"OBJECT_NAME":"STARLINK-5703","OBJECT_ID":"2023-020AA","EPOCH":"2026-03-18T06:00:02.000160","MEAN_MOTION":15.26749829,"ECCENTRICITY":0.00014688,"INCLINATION":43.0037,"RA_OF_ASC_NODE":316.3273,"ARG_OF_PERICENTER":269.1639,"MEAN_ANOMALY":254.3145,"EPHEMERIS_TYPE":0,"CLASSIFICATION_TYPE":"U","NORAD_CAT_ID":55593,"ELEMENT_SET_NO":999,"REV_AT_EPOCH":577,"BSTAR":-0.00071779772,"MEAN_MOTION_DOT":-0.00019469,"MEAN_MOTION_DDOT":0},{"OBJECT_NAME":"STARLINK-5750","OBJECT_ID":"2023-020AB","EPOCH":"2026-03-18T06:00:02.000160","MEAN_MOTION":15.25297873,"ECCENTRICITY":9.648e-5,"INCLINATION":42.9998,"RA_OF_ASC_NODE":316.4053,"ARG_OF_PERICENTER":296.5756,"MEAN_ANOMALY":193.6276,"EPHEMERIS_TYPE":0,"CLASSIFICATION_TYPE":"U","NORAD_CAT_ID":55594,"ELEMENT_SET_NO":999,"REV_AT_EPOCH":577,"BSTAR":0.048057974,"MEAN_MOTION_DOT":0.01338621,"MEAN_MOTION_DDOT":0},{"OBJECT_NAME":"STARLINK-5729","OBJECT_ID":"2023-020AD","EPOCH":"2026-03-18T06:00:02.000160","MEAN_MOTION":15.23828303,"ECCENTRICITY":0.00012807,"INCLINATION":42.9988,"RA_OF_ASC_NODE":316.543,"ARG_OF_PERICENTER":284.6594,"MEAN_ANOMALY":146.5922,"EPHEMERIS_TYPE":0,"CLASSIFICATION_TYPE":"U","NORAD_CAT_ID":55596,"ELEMENT_SET_NO":999,"REV_AT_EPOCH":577,"BSTAR":0.050320614,"MEAN_MOTION_DOT":0.01341868,"MEAN_MOTION_DDOT":0},{"OBJECT_NAME":"STARLINK-5743","OBJECT_ID":"2023-020AE","EPOCH":"2026-03-18T06:00:02.000160","MEAN_MOTION":15.17989874,"ECCENTRICITY":7.091e-5,"INCLINATION":42.9985,"RA_OF_ASC_NODE":304.9527,"ARG_OF_PERICENTER":241.3005,"MEAN_ANOMALY":331.255,"EPHEMERIS_TYPE":0,"CLASSIFICATION_TYPE":"U","NORAD_CAT_ID":55597,"ELEMENT_SET_NO":999,"REV_AT_EPOCH":567,"BSTAR":0.0027027706,"MEAN_MOTION_DOT":0.00056166,"MEAN_MOTION_DDOT":0},{"OBJECT_NAME":"STARLINK-5756","OBJECT_ID":"2023-020AF","EPOCH":"2026-03-18T06:00:02.000160","MEAN_MOTION":15.13122321,"ECCENTRICITY":0.00022865,"INCLINATION":43.0005,"RA_OF_ASC_NODE":305.3532,"ARG_OF_PERICENTER":272.1846,"MEAN_ANOMALY":115.3744,"EPHEMERIS_TYPE":0,"CLASSIFICATION_TYPE":"U","NORAD_CAT_ID":55598,"ELEMENT_SET_NO":999,"REV_AT_EPOCH":573,"BSTAR":0.00085573272,"MEAN_MOTION_DOT":0.00015237,"MEAN_MOTION_DDOT":0},{"OBJECT_NAME":"STARLINK-5761","OBJECT_ID":"2023-020AG","EPOCH":"2026-03-18T06:00:02.000160","MEAN_MOTION":15.13602876,"ECCENTRICITY":0.00020514,"INCLINATION":42.9993,"RA_OF_ASC_NODE":305.1423,"ARG_OF_PERICENTER":252.6309,"MEAN_ANOMALY":225.6047,"EPHEMERIS_TYPE":0,"CLASSIFICATION_TYPE":"U","NORAD_CAT_ID":55599,"ELEMENT_SET_NO":999,"REV_AT_EPOCH":577,"BSTAR":0.0012826851,"MEAN_MOTION_DOT":0.00023291,"MEAN_MOTION_DDOT":0},{"OBJECT_NAME":"STARLINK-5755","OBJECT_ID":"2023-020AH","EPOCH":"2026-03-18T06:00:02.000160","MEAN_MOTION":15.13785162,"ECCENTRICITY":0.00010295,"INCLINATION":42.9994,"RA_OF_ASC_NODE":304.9734,"ARG_OF_PERICENTER":288.2266,"MEAN_ANOMALY":270.0842,"EPHEMERIS_TYPE":0,"CLASSIFICATION_TYPE":"U","NORAD_CAT_ID":55600,"ELEMENT_SET_NO":999,"REV_AT_EPOCH":573,"BSTAR":0.0010405039,"MEAN_MOTION_DOT":0.00018937,"MEAN_MOTION_DDOT":0},{"OBJECT_NAME":"STARLINK-5744","OBJECT_ID":"2023-020AJ","EPOCH":"2026-03-18T06:00:02.000160","MEAN_MOTION":15.18968635,"ECCENTRICITY":0.00019633,"INCLINATION":42.9992,"RA_OF_ASC_NODE":316.6538,"ARG_OF_PERICENTER":263.8224,"MEAN_ANOMALY":119.3576,"EPHEMERIS_TYPE":0,"CLASSIFICATION_TYPE":"U","NORAD_CAT_ID":55601,"ELEMENT_SET_NO":999,"REV_AT_EPOCH":567,"BSTAR":0.0016097923,"MEAN_MOTION_DOT":0.00034214,"MEAN_MOTION_DDOT":0},{"OBJECT_NAME":"STARLINK-5764","OBJECT_ID":"2023-020AK","EPOCH":"2026-03-18T06:00:02.000160","MEAN_MOTION":15.14033197,"ECCENTRICITY":0.00016051,"INCLINATION":43.0001,"RA_OF_ASC_NODE":305.0594,"ARG_OF_PERICENTER":259.2161,"MEAN_ANOMALY":254.3607,"EPHEMERIS_TYPE":0,"CLASSIFICATION_TYPE":"U","NORAD_CAT_ID":55602,"ELEMENT_SET_NO":999,"REV_AT_EPOCH":562,"BSTAR":0.0011762722,"MEAN_MOTION_DOT":0.00021597,"MEAN_MOTION_DDOT":0}]
